{"type": "FeatureCollection", "features": [ {"type": "Feature", "properties": {"norad_id": 33779, "name": "COSMOS 2251 DEB", "group": "cosmos-2251-debris", "lat": -44.35426294536526, "lon": 129.16470147199726, "alt_km": 672.8376572217603, "timestamp": "2025-12-25T19:00:39.743244+00:00", "meta": {"OBJECT_NAME": "COSMOS 2251 DEB", "OBJECT_ID": "1993-036U", "EPOCH": "2025-12-24T21:05:36.174624", "MEAN_MOTION": 14.70766262, "ECCENTRICITY": 0.00159079, "INCLINATION": 74.045, "RA_OF_ASC_NODE": 147.1786, "ARG_OF_PERICENTER": 180.0907, "MEAN_ANOMALY": 339.8161, "EPHEMERIS_TYPE": 0, "CLASSIFICATION_TYPE": "U", "NORAD_CAT_ID": 33779, "ELEMENT_SET_NO": 999, "REV_AT_EPOCH": 88706, "BSTAR": 0.0027468588, "MEAN_MOTION_DOT": 0.00016808, "MEAN_MOTION_DDOT": 0}, "tle": {"line1": "1 33779U 93036U   25358.87889091  .00016808  00000+0  27469-2 0  9995", "line2": "2 33779  74.0450 147.1786 0015907 180.0907 339.8161 14.70766262887063"}}, "geometry": {"type": "Point", "coordinates": [129.16470147199726, -44.35426294536526]}}, {"type": "Feature", "properties": {"norad_id": 33782, "name": "COSMOS 2251 DEB", "group": "cosmos-2251-debris", "lat": 71.68826539122927, "lon": 13.509611905376843, "alt_km": 761.6151242586193, "timestamp": "2025-12-25T19:00:39.743256+00:00", "meta": {"OBJECT_NAME": "COSMOS 2251 DEB", "OBJECT_ID": "1993-036X", "EPOCH": "2025-12-24T17:50:41.915616", "MEAN_MOTION": 14.40475861, "ECCENTRICITY": 0.00211225, "INCLINATION": 74.0327, "RA_OF_ASC_NODE": 255.3467, "ARG_OF_PERICENTER": 318.6664, "MEAN_ANOMALY": 104.7613, "EPHEMERIS_TYPE": 0, "CLASSIFICATION_TYPE": "U", "NORAD_CAT_ID": 33782, "ELEMENT_SET_NO": 999, "REV_AT_EPOCH": 88299, "BSTAR": 0.00033132965, "MEAN_MOTION_DOT": 1.03e-05, "MEAN_MOTION_DDOT": 0}, "tle": {"line1": "1 33782U 93036X   25358.74354069  .00001030  00000+0  33133-3 0  9994", "line2": "2 33782  74.0327 255.3467 0021122 318.6664 104.7613 14.40475861882990"}}, "geometry": {"type": "Point", "coordinates": [13.509611905376843, 71.68826539122927]}}, {"type": "Feature", "properties": {"norad_id": 33785, "name": "COSMOS 2251 DEB", "group": "cosmos-2251-debris", "lat": -66.37929269091146, "lon": -7.110032721802556, "alt_km": 653.6885836328183, "timestamp": "2025-12-25T19:00:39.743266+00:00", "meta": {"OBJECT_NAME": "COSMOS 2251 DEB", "OBJECT_ID": "1993-036AA", "EPOCH": "2025-12-24T13:03:17.999712", "MEAN_MOTION": 14.70740898, "ECCENTRICITY": 0.00232499, "INCLINATION": 73.8666, "RA_OF_ASC_NODE": 36.7814, "ARG_OF_PERICENTER": 334.1933, "MEAN_ANOMALY": 187.5116, "EPHEMERIS_TYPE": 0, "CLASSIFICATION_TYPE": "U", "NORAD_CAT_ID": 33785, "ELEMENT_SET_NO": 999, "REV_AT_EPOCH": 88680, "BSTAR": 0.0020429861, "MEAN_MOTION_DOT": 0.00012503, "MEAN_MOTION_DDOT": 0}, "tle": {"line1": "1 33785U 93036AA  25358.54395833  .00012503  00000+0  20430-2 0  9991", "line2": "2 33785  73.8666  36.7814 0023249 334.1933 187.5116 14.70740898886806"}}, "geometry": {"type": "Point", "coordinates": [-7.110032721802556, -66.37929269091146]}}, {"type": "Feature", "properties": {"norad_id": 33789, "name": "COSMOS 2251 DEB", "group": "cosmos-2251-debris", "lat": -44.087805583415026, "lon": -98.67897295752519, "alt_km": 820.175064356059, "timestamp": "2025-12-25T19:00:39.743276+00:00", "meta": {"OBJECT_NAME": "COSMOS 2251 DEB", "OBJECT_ID": "1993-036AE", "EPOCH": "2025-12-25T06:07:07.523616", "MEAN_MOTION": 13.88822638, "ECCENTRICITY": 0.02395542, "INCLINATION": 74.0643, "RA_OF_ASC_NODE": 66.1659, "ARG_OF_PERICENTER": 179.0325, "MEAN_ANOMALY": 240.4831, "EPHEMERIS_TYPE": 0, "CLASSIFICATION_TYPE": "U", "NORAD_CAT_ID": 33789, "ELEMENT_SET_NO": 999, "REV_AT_EPOCH": 85269, "BSTAR": 0.00063647586, "MEAN_MOTION_DOT": 9.44e-06, "MEAN_MOTION_DDOT": 0}, "tle": {"line1": "1 33789U 93036AE  25359.25494819  .00000944  00000+0  63648-3 0  9993", "line2": "2 33789  74.0643  66.1659 0239554 179.0325 240.4831 13.88822638852695"}}, "geometry": {"type": "Point", "coordinates": [-98.67897295752519, -44.087805583415026]}}, {"type": "Feature", "properties": {"norad_id": 33791, "name": "COSMOS 2251 DEB", "group": "cosmos-2251-debris", "lat": 48.507616835105146, "lon": 174.83990845535203, "alt_km": 739.2134625179042, "timestamp": "2025-12-25T19:00:39.743287+00:00", "meta": {"OBJECT_NAME": "COSMOS 2251 DEB", "OBJECT_ID": "1993-036AG", "EPOCH": "2025-12-25T03:44:01.388832", "MEAN_MOTION": 14.43190231, "ECCENTRICITY": 0.00300526, "INCLINATION": 74.1748, "RA_OF_ASC_NODE": 14.7153, "ARG_OF_PERICENTER": 209.4377, "MEAN_ANOMALY": 213.8379, "EPHEMERIS_TYPE": 0, "CLASSIFICATION_TYPE": "U", "NORAD_CAT_ID": 33791, "ELEMENT_SET_NO": 999, "REV_AT_EPOCH": 88231, "BSTAR": 0.00093494649, "MEAN_MOTION_DOT": 3.136e-05, "MEAN_MOTION_DDOT": 0}, "tle": {"line1": "1 33791U 93036AG  25359.15557163  .00003136  00000+0  93495-3 0  9996", "line2": "2 33791  74.1748  14.7153 0030052 209.4377 213.8379 14.43190231882312"}}, "geometry": {"type": "Point", "coordinates": [174.83990845535203, 48.507616835105146]}}, {"type": "Feature", "properties": {"norad_id": 33792, "name": "COSMOS 2251 DEB", "group": "cosmos-2251-debris", "lat": -68.47031793573584, "lon": -82.55456255280399, "alt_km": 1149.1735991778742, "timestamp": "2025-12-25T19:00:39.743297+00:00", "meta": {"OBJECT_NAME": "COSMOS 2251 DEB", "OBJECT_ID": "1993-036AH", "EPOCH": "2025-12-25T07:23:57.361920", "MEAN_MOTION": 13.45847725, "ECCENTRICITY": 0.04278326, "INCLINATION": 73.9013, "RA_OF_ASC_NODE": 325.2725, "ARG_OF_PERICENTER": 27.6331, "MEAN_ANOMALY": 78.4041, "EPHEMERIS_TYPE": 0, "CLASSIFICATION_TYPE": "U", "NORAD_CAT_ID": 33792, "ELEMENT_SET_NO": 999, "REV_AT_EPOCH": 82611, "BSTAR": 0.0011772103, "MEAN_MOTION_DOT": 1.202e-05, "MEAN_MOTION_DDOT": 0}, "tle": {"line1": "1 33792U 93036AH  25359.30830280  .00001202  00000+0  11772-2 0  9997", "line2": "2 33792  73.9013 325.2725 0427832  27.6331  78.4041 13.45847725826111"}}, "geometry": {"type": "Point", "coordinates": [-82.55456255280399, -68.47031793573584]}}, {"type": "Feature", "properties": {"norad_id": 33793, "name": "COSMOS 2251 DEB", "group": "cosmos-2251-debris", "lat": 10.227211449553515, "lon": 129.1666645761659, "alt_km": 806.8669204696562, "timestamp": "2025-12-25T19:00:39.743308+00:00", "meta": {"OBJECT_NAME": "COSMOS 2251 DEB", "OBJECT_ID": "1993-036AJ", "EPOCH": "2025-12-24T20:00:32.387616", "MEAN_MOTION": 14.27763171, "ECCENTRICITY": 0.0078937, "INCLINATION": 73.9808, "RA_OF_ASC_NODE": 127.9369, "ARG_OF_PERICENTER": 275.6893, "MEAN_ANOMALY": 209.9002, "EPHEMERIS_TYPE": 0, "CLASSIFICATION_TYPE": "U", "NORAD_CAT_ID": 33793, "ELEMENT_SET_NO": 999, "REV_AT_EPOCH": 87379, "BSTAR": 0.00072114385, "MEAN_MOTION_DOT": 1.814e-05, "MEAN_MOTION_DDOT": 0}, "tle": {"line1": "1 33793U 93036AJ  25358.83370819  .00001814  00000+0  72114-3 0  9999", "line2": "2 33793  73.9808 127.9369 0078937 275.6893 209.9002 14.27763171873798"}}, "geometry": {"type": "Point", "coordinates": [129.1666645761659, 10.227211449553515]}}, {"type": "Feature", "properties": {"norad_id": 33795, "name": "COSMOS 2251 DEB", "group": "cosmos-2251-debris", "lat": 15.894110567705887, "lon": 54.64307713084028, "alt_km": 556.7254078386613, "timestamp": "2025-12-25T19:00:39.743318+00:00", "meta": {"OBJECT_NAME": "COSMOS 2251 DEB", "OBJECT_ID": "1993-036AL", "EPOCH": "2025-12-25T06:29:44.654208", "MEAN_MOTION": 15.05925127, "ECCENTRICITY": 0.00302873, "INCLINATION": 74.0314, "RA_OF_ASC_NODE": 51.0356, "ARG_OF_PERICENTER": 129.5773, "MEAN_ANOMALY": 301.535, "EPHEMERIS_TYPE": 0, "CLASSIFICATION_TYPE": "U", "NORAD_CAT_ID": 33795, "ELEMENT_SET_NO": 999, "REV_AT_EPOCH": 90210, "BSTAR": 0.0011571179, "MEAN_MOTION_DOT": 0.00017009, "MEAN_MOTION_DDOT": 0}, "tle": {"line1": "1 33795U 93036AL  25359.27065572  .00017009  00000+0  11571-2 0  9999", "line2": "2 33795  74.0314  51.0356 0030287 129.5773 301.5350 15.05925127902108"}}, "geometry": {"type": "Point", "coordinates": [54.64307713084028, 15.894110567705887]}}, {"type": "Feature", "properties": {"norad_id": 33797, "name": "COSMOS 2251 DEB", "group": "cosmos-2251-debris", "lat": 64.59369321739617, "lon": 153.1198354586129, "alt_km": 652.2193758364401, "timestamp": "2025-12-25T19:00:39.743328+00:00", "meta": {"OBJECT_NAME": "COSMOS 2251 DEB", "OBJECT_ID": "1993-036AN", "EPOCH": "2025-12-25T04:01:23.060064", "MEAN_MOTION": 14.57890358, "ECCENTRICITY": 0.00603551, "INCLINATION": 74.0464, "RA_OF_ASC_NODE": 11.3386, "ARG_OF_PERICENTER": 95.4506, "MEAN_ANOMALY": 338.0753, "EPHEMERIS_TYPE": 0, "CLASSIFICATION_TYPE": "U", "NORAD_CAT_ID": 33797, "ELEMENT_SET_NO": 999, "REV_AT_EPOCH": 89166, "BSTAR": 0.00038425945, "MEAN_MOTION_DOT": 1.776e-05, "MEAN_MOTION_DDOT": 0}, "tle": {"line1": "1 33797U 93036AN  25359.16762801  .00001776  00000+0  38426-3 0  9991", "line2": "2 33797  74.0464  11.3386 0060355  95.4506 338.0753 14.57890358891665"}}, "geometry": {"type": "Point", "coordinates": [153.1198354586129, 64.59369321739617]}}, {"type": "Feature", "properties": {"norad_id": 33798, "name": "COSMOS 2251 DEB", "group": "cosmos-2251-debris", "lat": 73.67098861895846, "lon": -170.58432982250082, "alt_km": 788.4810741804858, "timestamp": "2025-12-25T19:00:39.743356+00:00", "meta": {"OBJECT_NAME": "COSMOS 2251 DEB", "OBJECT_ID": "1993-036AP", "EPOCH": "2025-12-25T00:52:19.280928", "MEAN_MOTION": 14.44630068, "ECCENTRICITY": 0.00923182, "INCLINATION": 74.0294, "RA_OF_ASC_NODE": 113.0016, "ARG_OF_PERICENTER": 231.7048, "MEAN_ANOMALY": 246.4997, "EPHEMERIS_TYPE": 0, "CLASSIFICATION_TYPE": "U", "NORAD_CAT_ID": 33798, "ELEMENT_SET_NO": 999, "REV_AT_EPOCH": 88771, "BSTAR": 0.000194904, "MEAN_MOTION_DOT": 6.82e-06, "MEAN_MOTION_DDOT": 0}, "tle": {"line1": "1 33798U 93036AP  25359.03633427  .00000682  00000+0  19490-3 0  9994", "line2": "2 33798  74.0294 113.0016 0092318 231.7048 246.4997 14.44630068887716"}}, "geometry": {"type": "Point", "coordinates": [-170.58432982250082, 73.67098861895846]}}]}